{"type": "FeatureCollection", "features": [ {"type": "Feature", "properties": {"norad_id": 66968, "name": "STARLINK-36152", "group": "last-30-days", "lat": 20.43186854020333, "lon": 144.29062090155782, "alt_km": 319.8153541670581, "timestamp": "2025-12-20T07:33:49.516163+00:00", "meta": {"OBJECT_NAME": "STARLINK-36152", "OBJECT_ID": "2025-288K", "EPOCH": "2025-12-19T17:48:17.883360", "MEAN_MOTION": 15.83117105, "ECCENTRICITY": 0.00022963, "INCLINATION": 43.0011, "RA_OF_ASC_NODE": 124.2463, "ARG_OF_PERICENTER": 294.3972, "MEAN_ANOMALY": 65.666, "EPHEMERIS_TYPE": 0, "CLASSIFICATION_TYPE": "U", "NORAD_CAT_ID": 66968, "ELEMENT_SET_NO": 999, "REV_AT_EPOCH": 295, "BSTAR": -0.0019502857, "MEAN_MOTION_DOT": -0.00413243, "MEAN_MOTION_DDOT": 0}, "tle": {"line1": "1 66968U 25288K   25353.74187365 -.00413243  00000+0 -19503-2 0  9997", "line2": "2 66968  43.0011 124.2463 0002296 294.3972  65.6660 15.83117105  2950"}}, "geometry": {"type": "Point", "coordinates": [144.29062090155782, 20.43186854020333]}}, {"type": "Feature", "properties": {"norad_id": 66969, "name": "STARLINK-36149", "group": "last-30-days", "lat": 28.62035202326419, "lon": 156.53632946953766, "alt_km": 316.53375820709516, "timestamp": "2025-12-20T07:33:49.516174+00:00", "meta": {"OBJECT_NAME": "STARLINK-36149", "OBJECT_ID": "2025-288L", "EPOCH": "2025-12-19T16:14:26.540448", "MEAN_MOTION": 15.8367777, "ECCENTRICITY": 0.00020381, "INCLINATION": 43.0013, "RA_OF_ASC_NODE": 124.6173, "ARG_OF_PERICENTER": 225.9465, "MEAN_ANOMALY": 134.124, "EPHEMERIS_TYPE": 0, "CLASSIFICATION_TYPE": "U", "NORAD_CAT_ID": 66969, "ELEMENT_SET_NO": 999, "REV_AT_EPOCH": 294, "BSTAR": 0.00035800418, "MEAN_MOTION_DOT": 0.00081756, "MEAN_MOTION_DDOT": 0}, "tle": {"line1": "1 66969U 25288L   25353.67669607  .00081756  00000+0  35800-3 0  9991", "line2": "2 66969  43.0013 124.6173 0002038 225.9465 134.1240 15.83677770  2940"}}, "geometry": {"type": "Point", "coordinates": [156.53632946953766, 28.62035202326419]}}, {"type": "Feature", "properties": {"norad_id": 66970, "name": "STARLINK-35703", "group": "last-30-days", "lat": 33.12920314714556, "lon": 165.12441352252932, "alt_km": 316.33494282981064, "timestamp": "2025-12-20T07:33:49.516184+00:00", "meta": {"OBJECT_NAME": "STARLINK-35703", "OBJECT_ID": "2025-288M", "EPOCH": "2025-12-19T16:12:06.914592", "MEAN_MOTION": 15.8352226, "ECCENTRICITY": 0.00018776, "INCLINATION": 43.0009, "RA_OF_ASC_NODE": 124.603, "ARG_OF_PERICENTER": 275.4876, "MEAN_ANOMALY": 84.5782, "EPHEMERIS_TYPE": 0, "CLASSIFICATION_TYPE": "U", "NORAD_CAT_ID": 66970, "ELEMENT_SET_NO": 999, "REV_AT_EPOCH": 294, "BSTAR": -0.00033388952, "MEAN_MOTION_DOT": -0.00075382, "MEAN_MOTION_DDOT": 0}, "tle": {"line1": "1 66970U 25288M   25353.67508003 -.00075382  00000+0 -33389-3 0  9995", "line2": "2 66970  43.0009 124.6030 0001877 275.4876  84.5782 15.83522260  2947"}}, "geometry": {"type": "Point", "coordinates": [165.12441352252932, 33.12920314714556]}}, {"type": "Feature", "properties": {"norad_id": 66971, "name": "STARLINK-35678", "group": "last-30-days", "lat": 21.67402407715138, "lon": 145.96657779197213, "alt_km": 319.4821381836191, "timestamp": "2025-12-20T07:33:49.516194+00:00", "meta": {"OBJECT_NAME": "STARLINK-35678", "OBJECT_ID": "2025-288N", "EPOCH": "2025-12-19T16:16:59.430432", "MEAN_MOTION": 15.83306163, "ECCENTRICITY": 0.00020664, "INCLINATION": 43.0019, "RA_OF_ASC_NODE": 124.632, "ARG_OF_PERICENTER": 298.6857, "MEAN_ANOMALY": 61.3807, "EPHEMERIS_TYPE": 0, "CLASSIFICATION_TYPE": "U", "NORAD_CAT_ID": 66971, "ELEMENT_SET_NO": 999, "REV_AT_EPOCH": 294, "BSTAR": -0.0023694301, "MEAN_MOTION_DOT": -0.00501413, "MEAN_MOTION_DDOT": 0}, "tle": {"line1": "1 66971U 25288N   25353.67846563 -.00501413  00000+0 -23694-2 0  9998", "line2": "2 66971  43.0019 124.6320 0002066 298.6857  61.3807 15.83306163  2941"}}, "geometry": {"type": "Point", "coordinates": [145.96657779197213, 21.67402407715138]}}, {"type": "Feature", "properties": {"norad_id": 66972, "name": "STARLINK-34846", "group": "last-30-days", "lat": 24.127597834637225, "lon": 149.43945022223699, "alt_km": 316.7727222354224, "timestamp": "2025-12-20T07:33:49.516204+00:00", "meta": {"OBJECT_NAME": "STARLINK-34846", "OBJECT_ID": "2025-288P", "EPOCH": "2025-12-19T17:47:08.194848", "MEAN_MOTION": 15.83519621, "ECCENTRICITY": 0.00021695, "INCLINATION": 43.0016, "RA_OF_ASC_NODE": 124.2401, "ARG_OF_PERICENTER": 288.4953, "MEAN_ANOMALY": 71.5683, "EPHEMERIS_TYPE": 0, "CLASSIFICATION_TYPE": "U", "NORAD_CAT_ID": 66972, "ELEMENT_SET_NO": 999, "REV_AT_EPOCH": 295, "BSTAR": 0.00034080252, "MEAN_MOTION_DOT": 0.00077176, "MEAN_MOTION_DDOT": 0}, "tle": {"line1": "1 66972U 25288P   25353.74106707  .00077176  00000+0  34080-3 0  9990", "line2": "2 66972  43.0016 124.2401 0002169 288.4953  71.5683 15.83519621  2954"}}, "geometry": {"type": "Point", "coordinates": [149.43945022223699, 24.127597834637225]}}, {"type": "Feature", "properties": {"norad_id": 66973, "name": "STARLINK-35778", "group": "last-30-days", "lat": 24.746917982297745, "lon": 150.35545469658706, "alt_km": 318.4062458227645, "timestamp": "2025-12-20T07:33:49.516213+00:00", "meta": {"OBJECT_NAME": "STARLINK-35778", "OBJECT_ID": "2025-288Q", "EPOCH": "2025-12-19T17:46:35.755104", "MEAN_MOTION": 15.83178931, "ECCENTRICITY": 0.0002826, "INCLINATION": 43.0017, "RA_OF_ASC_NODE": 124.2373, "ARG_OF_PERICENTER": 302.0762, "MEAN_ANOMALY": 57.9836, "EPHEMERIS_TYPE": 0, "CLASSIFICATION_TYPE": "U", "NORAD_CAT_ID": 66973, "ELEMENT_SET_NO": 999, "REV_AT_EPOCH": 295, "BSTAR": -0.0011790201, "MEAN_MOTION_DOT": -0.00255323, "MEAN_MOTION_DDOT": 0}, "tle": {"line1": "1 66973U 25288Q   25353.74069161 -.00255323  00000+0 -11790-2 0  9999", "line2": "2 66973  43.0017 124.2373 0002826 302.0762  57.9836 15.83178931  2958"}}, "geometry": {"type": "Point", "coordinates": [150.35545469658706, 24.746917982297745]}}, {"type": "Feature", "properties": {"norad_id": 66974, "name": "STARLINK-35780", "group": "last-30-days", "lat": 25.8316351381647, "lon": 152.00442345603935, "alt_km": 320.12882239993996, "timestamp": "2025-12-20T07:33:49.516225+00:00", "meta": {"OBJECT_NAME": "STARLINK-35780", "OBJECT_ID": "2025-288R", "EPOCH": "2025-12-19T16:15:08.784864", "MEAN_MOTION": 15.83215679, "ECCENTRICITY": 0.00013462, "INCLINATION": 43.0013, "RA_OF_ASC_NODE": 124.6223, "ARG_OF_PERICENTER": 269.356, "MEAN_ANOMALY": 90.7158, "EPHEMERIS_TYPE": 0, "CLASSIFICATION_TYPE": "U", "NORAD_CAT_ID": 66974, "ELEMENT_SET_NO": 999, "REV_AT_EPOCH": 294, "BSTAR": -0.0029167824, "MEAN_MOTION_DOT": -0.00607006, "MEAN_MOTION_DDOT": 0}, "tle": {"line1": "1 66974U 25288R   25353.67718501 -.00607006  00000+0 -29168-2 0  9998", "line2": "2 66974  43.0013 124.6223 0001346 269.3560  90.7158 15.83215679  2942"}}, "geometry": {"type": "Point", "coordinates": [152.00442345603935, 25.8316351381647]}}, {"type": "Feature", "properties": {"norad_id": 66975, "name": "STARLINK-35777", "group": "last-30-days", "lat": 28.31569406496381, "lon": 156.01780680571497, "alt_km": 318.3533309600116, "timestamp": "2025-12-20T07:33:49.516238+00:00", "meta": {"OBJECT_NAME": "STARLINK-35777", "OBJECT_ID": "2025-288S", "EPOCH": "2025-12-19T19:15:43.236864", "MEAN_MOTION": 15.82888504, "ECCENTRICITY": 0.00028646, "INCLINATION": 43.0013, "RA_OF_ASC_NODE": 123.8403, "ARG_OF_PERICENTER": 327.0283, "MEAN_ANOMALY": 33.041, "EPHEMERIS_TYPE": 0, "CLASSIFICATION_TYPE": "U", "NORAD_CAT_ID": 66975, "ELEMENT_SET_NO": 999, "REV_AT_EPOCH": 296, "BSTAR": -0.0019187825, "MEAN_MOTION_DOT": -0.00402751, "MEAN_MOTION_DDOT": 0}, "tle": {"line1": "1 66975U 25288S   25353.80258376 -.00402751  00000+0 -19188-2 0  9994", "line2": "2 66975  43.0013 123.8403 0002864 327.0283  33.0410 15.82888504  2969"}}, "geometry": {"type": "Point", "coordinates": [156.01780680571497, 28.31569406496381]}}, {"type": "Feature", "properties": {"norad_id": 66976, "name": "STARLINK-35772", "group": "last-30-days", "lat": -42.90400961862644, "lon": 26.799763695517434, "alt_km": 358.0118574642547, "timestamp": "2025-12-20T07:33:49.516248+00:00", "meta": {"OBJECT_NAME": "STARLINK-35772", "OBJECT_ID": "2025-288T", "EPOCH": "2025-12-19T19:45:20.693088", "MEAN_MOTION": 15.72017658, "ECCENTRICITY": 0.00020339, "INCLINATION": 43.003, "RA_OF_ASC_NODE": 124.0062, "ARG_OF_PERICENTER": 258.5229, "MEAN_ANOMALY": 101.5411, "EPHEMERIS_TYPE": 0, "CLASSIFICATION_TYPE": "U", "NORAD_CAT_ID": 66976, "ELEMENT_SET_NO": 999, "REV_AT_EPOCH": 296, "BSTAR": -0.0080307471, "MEAN_MOTION_DOT": -0.00981437, "MEAN_MOTION_DDOT": 0}, "tle": {"line1": "1 66976U 25288T   25353.82315617 -.00981437  00000+0 -80307-2 0  9993", "line2": "2 66976  43.0030 124.0062 0002033 258.5229 101.5411 15.72017658  2964"}}, "geometry": {"type": "Point", "coordinates": [26.799763695517434, -42.90400961862644]}}, {"type": "Feature", "properties": {"norad_id": 66977, "name": "STARLINK-35770", "group": "last-30-days", "lat": 30.61818778526545, "lon": 160.11004140389355, "alt_km": 318.74332431288985, "timestamp": "2025-12-20T07:33:49.516258+00:00", "meta": {"OBJECT_NAME": "STARLINK-35770", "OBJECT_ID": "2025-288U", "EPOCH": "2025-12-19T13:11:34.611360", "MEAN_MOTION": 15.83672083, "ECCENTRICITY": 0.000222, "INCLINATION": 43.0014, "RA_OF_ASC_NODE": 125.3851, "ARG_OF_PERICENTER": 252.5865, "MEAN_ANOMALY": 107.4765, "EPHEMERIS_TYPE": 0, "CLASSIFICATION_TYPE": "U", "NORAD_CAT_ID": 66977, "ELEMENT_SET_NO": 999, "REV_AT_EPOCH": 292, "BSTAR": -0.0022363, "MEAN_MOTION_DOT": -0.00482653, "MEAN_MOTION_DDOT": 0}, "tle": {"line1": "1 66977U 25288U   25353.54970615 -.00482653  00000+0 -22363-2 0  9992", "line2": "2 66977  43.0014 125.3851 0002220 252.5865 107.4765 15.83672083  2929"}}, "geometry": {"type": "Point", "coordinates": [160.11004140389355, 30.61818778526545]}}]}